{
    "links": {
        "self": "http://www.neowsapp.com/rest/v1/neo/3261680?api_key=iIulBulltgU6a56xZRHN4H3l9WmuAYTsLGpBGhQ2"
    },
    "id": "3261680",
    "neo_reference_id": "3261680",
    "name": "(2004 VH1)",
    "designation": "2004 VH1",
    "nasa_jpl_url": "http://ssd.jpl.nasa.gov/sbdb.cgi?sstr=3261680",
    "absolute_magnitude_h": 21.8,
    "estimated_diameter": {
        "kilometers": {
            "estimated_diameter_min": 0.1160259082,
            "estimated_diameter_max": 0.2594418179
        },
        "meters": {
            "estimated_diameter_min": 116.0259082094,
            "estimated_diameter_max": 259.4418179074
        },
        "miles": {
            "estimated_diameter_min": 0.0720951346,
            "estimated_diameter_max": 0.1612096218
        },
        "feet": {
            "estimated_diameter_min": 380.6624406898,
            "estimated_diameter_max": 851.1870938635
        }
    },
    "is_potentially_hazardous_asteroid": false,
    "close_approach_data": [
        {
            "close_approach_date": "2004-11-15",
            "close_approach_date_full": "2004-Nov-15 03:46",
            "epoch_date_close_approach": 1100490360000,
            "relative_velocity": {
                "kilometers_per_second": "19.6998572785",
                "kilometers_per_hour": "70919.4862024643",
                "miles_per_hour": "44066.6107461923"
            },
            "miss_distance": {
                "astronomical": "0.161467652",
                "lunar": "62.810916628",
                "kilometers": "24155216.81310124",
                "miles": "15009355.734587512"
            },
            "orbiting_body": "Earth"
        },
        {
            "close_approach_date": "2006-11-03",
            "close_approach_date_full": "2006-Nov-03 00:51",
            "epoch_date_close_approach": 1162515060000,
            "relative_velocity": {
                "kilometers_per_second": "27.856174038",
                "kilometers_per_hour": "100282.2265367172",
                "miles_per_hour": "62311.4757055508"
            },
            "miss_distance": {
                "astronomical": "0.3777679753",
                "lunar": "146.9517423917",
                "kilometers": "56513284.459092611",
                "miles": "35115726.6249995918"
            },
            "orbiting_body": "Earth"
        }
    ],
    "orbital_data": {
        "orbit_id": "11",
        "orbit_determination_date": "2017-04-06 09:11:55",
        "first_observation_date": "2004-11-04",
        "last_observation_date": "2004-11-21",
        "data_arc_in_days": 17,
        "observations_used": 36,
        "orbit_uncertainty": "9",
        "minimum_orbit_intersection": ".150757",
        "jupiter_tisserand_invariant": "4.161",
        "epoch_osculation": "2453318.5",
        "eccentricity": ".471976104624185",
        "semi_major_axis": "1.552681307750132",
        "inclination": "32.8110546237098",
        "ascending_node_longitude": "43.40348447452014",
        "orbital_period": "706.6785575802613",
        "perihelion_distance": ".8198528323954394",
        "perihelion_argument": "88.56848085330657",
        "aphelion_distance": "2.285509783104825",
        "perihelion_time": "2453387.323609065277",
        "mean_anomaly": "324.939506091232",
        "mean_motion": ".5094253902830678",
        "equinox": "J2000",
        "orbit_class": {
            "orbit_class_type": "APO",
            "orbit_class_description": "Near-Earth asteroid orbits which cross the Earth’s orbit similar to that of 1862 Apollo",
            "orbit_class_range": "a (semi-major axis) > 1.0 AU; q (perihelion) < 1.017 AU"
        }
    },
    "is_sentry_object": false
}